{
  "type": "FeatureCollection",
  "features": [
    {
      "type": "Feature",
      "properties": {
        "norad_id": 37867,
        "name": "COSMOS 2476 (744)",
        "group": "glo-ops",
        "lat": -48.09442975970343,
        "lon": 48.27318103911134,
        "alt_km": 19115.44364098207,
        "timestamp": "2025-12-09T07:41:33.468685+00:00",
        "meta_object_name": "COSMOS 2476 (744)",
        "meta_object_id": "2011-064A",
        "meta_epoch": "2025-12-08T12:40:16.683168",
        "meta_mean_motion": 2.131013,
        "meta_eccentricity": 0.00241182,
        "meta_inclination": 65.16,
        "meta_ra_of_asc_node": 79.314,
        "meta_arg_of_pericenter": 233.9995,
        "meta_mean_anomaly": 182.6426,
        "meta_ephemeris_type": 0,
        "meta_classification_type": "U",
        "meta_norad_cat_id": 37867,
        "meta_element_set_no": 999,
        "meta_rev_at_epoch": 10970,
        "meta_bstar": 0,
        "meta_mean_motion_dot": -1.2e-07,
        "meta_mean_motion_ddot": 0,
        "tle_line1": "1 37867U 11064A   25342.52797087 -.00000012  00000+0  00000+0 0  9996",
        "tle_line2": "2 37867  65.1600  79.3140 0024118 233.9995 182.6426  2.13101300109708"
      },
      "geometry": {
        "type": "Point",
        "coordinates": [
          48.27318103911134,
          -48.09442975970343
        ]
      }
    },
    {
      "type": "Feature",
      "properties": {
        "norad_id": 37868,
        "name": "COSMOS 2477 (745)",
        "group": "glo-ops",
        "lat": 47.739113725470844,
        "lon": -131.21329006866532,
        "alt_km": 19142.007285787997,
        "timestamp": "2025-12-09T07:41:33.468706+00:00",
        "meta_object_name": "COSMOS 2477 (745)",
        "meta_object_id": "2011-064B",
        "meta_epoch": "2025-12-08T06:12:22.664160",
        "meta_mean_motion": 2.13102704,
        "meta_eccentricity": 0.0021182,
        "meta_inclination": 65.1663,
        "meta_ra_of_asc_node": 79.4007,
        "meta_arg_of_pericenter": 234.576,
        "meta_mean_anomaly": 156.3219,
        "meta_ephemeris_type": 0,
        "meta_classification_type": "U",
        "meta_norad_cat_id": 37868,
        "meta_element_set_no": 999,
        "meta_rev_at_epoch": 10969,
        "meta_bstar": 0,
        "meta_mean_motion_dot": -1.1e-07,
        "meta_mean_motion_ddot": 0,
        "tle_line1": "1 37868U 11064B   25342.25859565 -.00000011  00000+0  00000+0 0  9996",
        "tle_line2": "2 37868  65.1663  79.4007 0021182 234.5760 156.3219  2.13102704109691"
      },
      "geometry": {
        "type": "Point",
        "coordinates": [
          -131.21329006866532,
          47.739113725470844
        ]
      }
    },
    {
      "type": "Feature",
      "properties": {
        "norad_id": 37869,
        "name": "COSMOS 2475 (743)",
        "group": "glo-ops",
        "lat": 63.85847573875148,
        "lon": 149.73359678801017,
        "alt_km": 19187.778971744647,
        "timestamp": "2025-12-09T07:41:33.468732+00:00",
        "meta_object_name": "COSMOS 2475 (743)",
        "meta_object_id": "2011-064C",
        "meta_epoch": "2025-12-08T23:53:27.057120",
        "meta_mean_motion": 2.131013,
        "meta_eccentricity": 0.00260707,
        "meta_inclination": 65.174,
        "meta_ra_of_asc_node": 79.3957,
        "meta_arg_of_pericenter": 248.2366,
        "meta_mean_anomaly": 303.9156,
        "meta_ephemeris_type": 0,
        "meta_classification_type": "U",
        "meta_norad_cat_id": 37869,
        "meta_element_set_no": 999,
        "meta_rev_at_epoch": 10971,
        "meta_bstar": 0,
        "meta_mean_motion_dot": -1.3e-07,
        "meta_mean_motion_ddot": 0,
        "tle_line1": "1 37869U 11064C   25342.99545205 -.00000013  00000+0  00000+0 0  9993",
        "tle_line2": "2 37869  65.1740  79.3957 0026070 248.2366 303.9156  2.13101300109710"
      },
      "geometry": {
        "type": "Point",
        "coordinates": [
          149.73359678801017,
          63.85847573875148
        ]
      }
    },
    {
      "type": "Feature",
      "properties": {
        "norad_id": 39155,
        "name": "COSMOS 2485 (747)",
        "group": "glo-ops",
        "lat": -6.192560430125419,
        "lon": 77.13215210719954,
        "alt_km": 19166.273781972308,
        "timestamp": "2025-12-09T07:41:33.468751+00:00",
        "meta_object_name": "COSMOS 2485 (747)",
        "meta_object_id": "2013-019A",
        "meta_epoch": "2025-12-08T20:38:39.480288",
        "meta_mean_motion": 2.13102846,
        "meta_eccentricity": 0.00245424,
        "meta_inclination": 65.3114,
        "meta_ra_of_asc_node": 79.9979,
        "meta_arg_of_pericenter": 229.0903,
        "meta_mean_anomaly": 130.7128,
        "meta_ephemeris_type": 0,
        "meta_classification_type": "U",
        "meta_norad_cat_id": 39155,
        "meta_element_set_no": 999,
        "meta_rev_at_epoch": 9822,
        "meta_bstar": 0,
        "meta_mean_motion_dot": -1.1e-07,
        "meta_mean_motion_ddot": 0,
        "tle_line1": "1 39155U 13019A   25342.86017917 -.00000011  00000+0  00000+0 0  9993",
        "tle_line2": "2 39155  65.3114  79.9979 0024542 229.0903 130.7128  2.13102846 98227"
      },
      "geometry": {
        "type": "Point",
        "coordinates": [
          77.13215210719954,
          -6.192560430125419
        ]
      }
    },
    {
      "type": "Feature",
      "properties": {
        "norad_id": 39620,
        "name": "COSMOS 2492 (754)",
        "group": "glo-ops",
        "lat": 22.567182626547933,
        "lon": -28.657135406017467,
        "alt_km": 19116.858774744436,
        "timestamp": "2025-12-09T07:41:33.468763+00:00",
        "meta_object_name": "COSMOS 2492 (754)",
        "meta_object_id": "2014-012A",
        "meta_epoch": "2025-12-08T08:23:17.785824",
        "meta_mean_motion": 2.13103117,
        "meta_eccentricity": 0.0014207,
        "meta_inclination": 65.4103,
        "meta_ra_of_asc_node": 320.4195,
        "meta_arg_of_pericenter": 311.8365,
        "meta_mean_anomaly": 48.0373,
        "meta_ephemeris_type": 0,
        "meta_classification_type": "U",
        "meta_norad_cat_id": 39620,
        "meta_element_set_no": 999,
        "meta_rev_at_epoch": 9117,
        "meta_bstar": 0,
        "meta_mean_motion_dot": -4.9e-07,
        "meta_mean_motion_ddot": 0,
        "tle_line1": "1 39620U 14012A   25342.34951141 -.00000049  00000+0  00000+0 0  9994",
        "tle_line2": "2 39620  65.4103 320.4195 0014207 311.8365  48.0373  2.13103117 91178"
      },
      "geometry": {
        "type": "Point",
        "coordinates": [
          -28.657135406017467,
          22.567182626547933
        ]
      }
    },
    {
      "type": "Feature",
      "properties": {
        "norad_id": 40001,
        "name": "COSMOS 2500 (755)",
        "group": "glo-ops",
        "lat": -60.25092626877818,
        "lon": -166.4058914759817,
        "alt_km": 19118.720521447198,
        "timestamp": "2025-12-09T07:41:33.468775+00:00",
        "meta_object_name": "COSMOS 2500 (755)",
        "meta_object_id": "2014-032A",
        "meta_epoch": "2025-12-08T01:15:37.591488",
        "meta_mean_motion": 2.13105896,
        "meta_eccentricity": 0.00081247,
        "meta_inclination": 65.3461,
        "meta_ra_of_asc_node": 320.1922,
        "meta_arg_of_pericenter": 219.298,
        "meta_mean_anomaly": 140.6379,
        "meta_ephemeris_type": 0,
        "meta_classification_type": "U",
        "meta_norad_cat_id": 40001,
        "meta_element_set_no": 999,
        "meta_rev_at_epoch": 8938,
        "meta_bstar": 0,
        "meta_mean_motion_dot": -4.9e-07,
        "meta_mean_motion_ddot": 0,
        "tle_line1": "1 40001U 14032A   25342.05251842 -.00000049  00000+0  00000+0 0  9990",
        "tle_line2": "2 40001  65.3461 320.1922 0008124 219.2980 140.6379  2.13105896 89380"
      },
      "geometry": {
        "type": "Point",
        "coordinates": [
          -166.4058914759817,
          -60.25092626877818
        ]
      }
    },
    {
      "type": "Feature",
      "properties": {
        "norad_id": 40315,
        "name": "COSMOS 2501 (702K)",
        "group": "glo-ops",
        "lat": 45.94304810116942,
        "lon": -132.18265123897277,
        "alt_km": 19169.66272052653,
        "timestamp": "2025-12-09T07:41:33.468791+00:00",
        "meta_object_name": "COSMOS 2501 (702K)",
        "meta_object_id": "2014-075A",
        "meta_epoch": "2025-12-07T20:13:51.362112",
        "meta_mean_motion": 2.13101338,
        "meta_eccentricity": 0.00201356,
        "meta_inclination": 63.6139,
        "meta_ra_of_asc_node": 196.9947,
        "meta_arg_of_pericenter": 204.4913,
        "meta_mean_anomaly": 155.4908,
        "meta_ephemeris_type": 0,
        "meta_classification_type": "U",
        "meta_norad_cat_id": 40315,
        "meta_element_set_no": 999,
        "meta_rev_at_epoch": 8577,
        "meta_bstar": 0,
        "meta_mean_motion_dot": 5.4e-07,
        "meta_mean_motion_ddot": 0,
        "tle_line1": "1 40315U 14075A   25341.84295558  .00000054  00000+0  00000+0 0  9998",
        "tle_line2": "2 40315  63.6139 196.9947 0020135 204.4913 155.4908  2.13101338 85773"
      },
      "geometry": {
        "type": "Point",
        "coordinates": [
          -132.18265123897277,
          45.94304810116942
        ]
      }
    }
  ]
}